StoreName,StoreType,StoreOpeningDate,Address,City,State,Region,ManagerName
The Unique Emporium,SMB,1971-03-09,198 Tiffany Light New Annette AS 34235,Matthewburgh,Indiana,East,Eric
The Vintage Treasures,Exclusive,1991-07-04,148 Bennett Unions Suite 054 North Riley SC 14604,East Mary,Minnesota,West,Henry
The Unique Sanctuary,Outlet Stores,2013-09-02,89719 Michael Court Port Joseph FM 62311,Lake Mariaport,Maryland,East,Steven
The Unique Quest,Outlet Stores,1973-02-10,8390 Payne Roads West Brentmouth NJ 35518,Elizabethmouth,Arkansas,South,James
The Stylish Haven,Outlet Stores,1982-06-08,9284 Kelly Street Apt. 447 South Joseph AR 70763,North Margaret,Illinois,South,John
The Happy Shoppe,MBO,1985-05-09,7779 Jimenez Locks Hermanside GA 14178,North Amanda,Colorado,South,Hannah
The Cozy Loft,MBO,1989-06-09,29491 Huber Roads Tracyside DC 43931,Lisatown,Maryland,North,Zoe
The Rustic Treasures,MBO,1982-03-03,85488 Shannon Walk Suite 335 Chavezburgh TX 01035,Port William,Kentucky,South,Tabitha
The Blissful Merchant,Exclusive,1992-05-05,7431 Randall Divide Suite 719 Laurieberg MH 56945,Port Heather,Oregon,South,David
The Trendy Shop,MBO,2002-04-07,8794 Moreno Road Karenview MO 48613,East George,Wyoming,East,Laura
The Timeless Enclave,Exclusive,1979-05-29,461 Anthony Street New Benjaminfort ND 30774,Washingtonborough,Maryland,North,Meagan
The Rustic Vault,Outlet Stores,1972-12-23,0248 Pope Forest Port Ian IL 71476,Brendatown,Texas,North,Justin
The Enchated Cabinet,Exclusive,1977-04-11,0736 Hill Stravenue Apt. 541 Lake Caleb KS 11649,Hannaberg,Oregon,South,Kevin
The Majestic Reflections,Outlet Stores,2021-10-27,34139 Bradley Rapids Apt. 286 New Bradleyburgh WV 37593,Michaelchester,Idaho,West,Kristina
The Stylish Closet,Exclusive,2000-10-05,104 Anderson Square Johnsonberg ME 41940,Ingramstad,Nebraska,North,Laurie
The Shimmer Quest,MBO,1993-11-24,USS Donovan FPO AA 45750,Port Kevin,Delaware,North,Andrew
The Serene Shoppe,MBO,1972-03-21,313 Jennifer Extension Clarkchester MH 94045,West Crystal,Idaho,North,Thomas
The Luxe Emporium,Outlet Stores,1983-10-14,138 Andrew Hill Apt. 591 South Christophermouth KS 97412,New Annton,Massachusetts,North,Carl
The Trendy Marketplace,SMB,1975-06-26,87897 Woods Corner Port Jose FM 09951,Christopherbury,Wisconsin,West,Cynthia
The Majestic Avenue,Exclusive,2005-11-07,180 Meyer Spurs Lake Michaelmouth ND 77164,Samanthaport,Arizona,West,Jake
The Majestic Creations,MBO,1979-11-14,1633 Davis Shore Suite 552 Joshuafurt PW 92012,Elizabethhaven,Nebraska,North,Christina
The Harmony Corner,Exclusive,2008-05-30,672 Laura Unions Suite 422 Carltown KS 34099,Hicksbury,Nebraska,West,Brian
The Enchated Enclave,MBO,1979-09-20,60237 Ponce Hills Suite 995 Stevenhaven GU 78048,Susanland,Alaska,South,Alison
The Majestic Quest,MBO,2022-06-24,2667 Long Curve Baileychester GA 10746,Staceyborough,Idaho,North,Ariel
The Harmony Corner,SMB,2006-12-25,5760 Lin Island Castanedamouth TX 15253,South Whitney,Illinois,South,Nicholas
The Vintage Perfection,Outlet Stores,1985-02-03,45731 Mitchell Ramp Suite 106 Boylebury NM 40383,West Robertberg,Washington,South,Patricia
The Trendy Loft,Exclusive,2008-02-22,PSC 4088 Box 8113 APO AP 22110,Rileyport,Idaho,South,Joseph
The Shimmer Finds,MBO,2016-02-24,511 Sparks Lights North Rebeccatown NM 72483,Ericmouth,Idaho,East,Michael
The Enchated Oasis,Outlet Stores,1975-09-20,743 Smith Shore Apt. 309 East Richard NC 15612,Port Andrewshire,South Carolina,North,Joshua
The Happy Oasis,MBO,1973-05-07,USCGC Gillespie FPO AE 58100,South Kristinfort,Alaska,North,Ronald
The Unique Boutique,MBO,1985-10-31,43385 Krista Village Apt. 803 West Michaelburgh RI 16755,South Krista,Hawaii,North,Dustin
The Luxe Treasures,SMB,1991-08-12,742 Brian Rapids Suite 724 Lake Jacquelineshire NJ 59386,Blakebury,Maine,West,Marie
The Stylish Deals,SMB,2013-01-21,347 Leslie Well Port Albertside SD 57464,Port Timothychester,Rhode Island,West,Kelly
The Golden Oasis,Outlet Stores,1973-05-02,9103 Nguyen Bypass Apt. 267 Coxstad TN 75799,South Yvette,New Jersey,South,Daniel
The Majestic Shoppe,MBO,2004-06-16,26362 Tamara Cove Apt. 240 Elliottmouth DE 57004,Lake Michaelbury,North Dakota,East,Heather
The Chic Boutique,MBO,2021-04-04,2712 Dawn Valley Rothview NH 67699,Lake Patricia,Illinois,West,Shannon
The Rustic Closet,SMB,2019-01-28,55584 Smith Throughway Washingtonview DE 56534,Bridgesburgh,Massachusetts,East,Mary
The Whimsy Haven,MBO,1970-02-06,1166 Yesenia Motorway Suite 294 Jamesview AL 51219,Santosborough,Delaware,North,Jennifer
The Harmony Oasis,SMB,1997-11-20,0616 Ronald Street Kennethmouth PR 52624,South Brian,Illinois,North,Anna
The Luxe Shop,Outlet Stores,1997-07-16,913 Tara Isle Suite 554 North Sharonchester WY 77688,Kirkburgh,Wisconsin,South,Clarence
The Vintage Oasis,MBO,2022-01-09,2564 Mary Village Apt. 213 Ortizfurt GU 90009,East Robert,Indiana,North,Hannah
The Harmony Corner,MBO,1977-02-18,Unit 3087 Box 2700 DPO AA 36170,Mooremouth,Oregon,West,Timothy
The Shimmer Perfection,Outlet Stores,1985-09-12,274 Gomez Drive Port Kimberly NE 18051,Port Melanieport,New Mexico,West,Mike
The Artisan Boutique,SMB,1991-02-12,439 Love Well North Cynthiaview NC 86596,Stuartfort,South Dakota,North,Amanda
The Unique Enclave,Outlet Stores,1992-07-07,987 Calhoun Prairie Suite 928 West Joseph VA 35100,New Curtis,Montana,South,Mike
The Eclectic Corner,Exclusive,2009-11-04,5120 Jack Mountain Suite 073 North Matthewview AZ 52415,Josephville,Pennsylvania,North,Jill
The Modern Vault,Outlet Stores,2021-08-03,1905 Christopher Row Apt. 745 Lake Katherine MN 34763,Port Patrick,Delaware,East,Monica
The Classy Enclave,MBO,1974-07-05,93459 Russo Key Katrinaside SD 25357,New Stephanieberg,Tennessee,South,William
The Eclectic Merchant,MBO,2011-04-24,PSC 8550 Box 2390 APO AE 36133,Matthewland,Virginia,South,John
The Rustic Shop,MBO,1975-06-21,23554 Joel View Suite 087 New Brianmouth GU 37944,North Lisa,Montana,East,John
The Eclectic Creations,SMB,2007-09-29,302 Claudia Lane East Madisonland HI 41906,Williamville,Connecticut,East,Danielle
The Urban Elegance,Exclusive,1977-06-23,066 Patricia Rapids Port Bryan SC 03000,Walkerberg,Colorado,East,Amanda
The Trendy Oasis,SMB,1996-06-11,8098 Renee Neck New Miguelfurt OH 13036,Lake Johnstad,Virginia,West,Aaron
The Dapper Avenue,Exclusive,2018-06-04,USNV Smith FPO AA 43214,Linside,New Mexico,East,Sandra
The Golden Essentials,SMB,1978-03-27,4880 Woods Forest Apt. 322 Davidfurt NY 33773,Coleburgh,Florida,West,Anna
The Golden Treasures,Outlet Stores,2017-05-11,56435 Denise Stream Apt. 880 Coopertown OR 94121,Carlosbury,Idaho,North,Jason
The Stylish Haven,MBO,2019-01-30,Unit 8447 Box 0202 DPO AA 62789,Christinaview,Indiana,West,Matthew
The Eclectic Cabinet,SMB,2010-12-29,945 Ayala Pike Apt. 206 Tinaland MN 29025,South Timothytown,Delaware,North,Eric
The Happy Shop,MBO,1971-09-25,846 Helen Flat Apt. 833 Watkinsstad CA 99688,New Christopher,Kentucky,North,Victoria
The Timeless Corner,Outlet Stores,2009-04-26,27525 Melissa Mission North Matthewfurt AR 32070,North Christina,Illinois,South,Richard
The Luxe Nook,Exclusive,2014-08-25,9708 Deborah Drives South Joseborough MP 18717,Hernandezchester,Washington,South,April
The Luxe Emporium,MBO,2004-10-02,PSC 5064 Box 7551 APO AE 51487,Batesberg,Indiana,South,Manuel
The Artisan Nook,MBO,1985-04-18,9054 Landry Light New Natalie TX 84573,Port Christopher,Washington,East,Oscar
The Harmony Emporium,MBO,2011-10-13,Unit 1874 Box 0037 DPO AA 87787,New Valerieview,Georgia,West,Jessica
The Urban Boutique,Exclusive,1976-01-25,641 Kathleen Passage Apt. 269 South Jack KY 94604,West Kimberly,Arizona,South,Nancy
The Enchated Oasis,MBO,2021-12-03,203 Kim Tunnel Apt. 760 Jodystad PR 31954,East Karen,Iowa,North,Dylan
The Happy Haven,SMB,2025-01-27,336 Bailey Plain Suite 402 Lake Matthew SD 29337,South Andreatown,Delaware,South,Tina
The Cozy Reflections,Exclusive,1977-08-29,928 Blair Fords Jessicamouth MN 11791,Annland,Virginia,North,Robert
The Blissful Reflections,SMB,1971-10-21,27646 Jimmy Courts Hendersontown NY 58046,Laneland,California,North,Michael
The Vintage Nook,Exclusive,2022-01-10,6341 Montoya Island Suite 763 Lake Roberthaven IA 35444,North Scottstad,Michigan,North,Michelle
The Modern Corner,Exclusive,1970-12-02,0110 Robles Fork Suite 236 East Samuel NE 45046,East Jade,Iowa,North,William
The Urban Elegance,SMB,1992-10-09,5296 Lisa Common Suite 543 Lake Rachel PA 44607,South Kevinstad,North Dakota,South,Brittany
The Eclectic Perfection,Outlet Stores,1987-10-27,7086 Friedman Plains Lake Nicolebury WA 80804,Wallacemouth,South Dakota,South,Christopher
The Unique Marketplace,Outlet Stores,2015-01-13,PSC 6163 Box 6026 APO AP 08840,East John,Arizona,West,Claudia
The Enchated Merchant,SMB,1996-09-04,9393 Lindsey Brooks Suite 097 Buchananfurt ND 64672,West William,Oklahoma,North,Kayla
The Polished Cabinet,MBO,1986-08-05,5234 Joseph Freeway Courtneyborough NV 30105,Martinstad,Colorado,North,Drew
The Radiant Shoppe,MBO,1998-03-03,92958 Moses Forge Nicholasmouth AK 43845,Sandovalburgh,Ohio,North,Angela
The Radiant Reflections,Outlet Stores,1990-10-31,268 Dwayne Vista Apt. 062 East Lance ME 60044,Stephaniechester,Ohio,North,Justin
The Golden Vault,Exclusive,2010-03-06,324 Hansen Ferry Anafort DE 65509,Huertaberg,Illinois,East,Theresa
The Dapper Haven,SMB,1976-03-20,344 Destiny Flats Nobleborough CT 94563,Port Brian,Montana,North,Katherine
The Polished Closet,SMB,1984-12-30,8916 Michael Springs Suite 140 Jessicaburgh MT 16548,Robinsonchester,Idaho,East,Hannah
The Golden Enclave,Exclusive,2016-07-11,37661 Stephanie Forks Apt. 972 Loriland IA 54963,East Caitlyn,Iowa,North,Joe
The Dapper Loft,MBO,1999-10-10,51775 Reyes Mission Melissastad MA 77248,New Kenneth,Kansas,West,Jennifer
The Urban Marvels,MBO,1992-02-28,5820 Bell Port Apt. 212 South Alexisfurt VI 69694,Brooksview,Arkansas,North,Natalie
The Rustic Perfection,Exclusive,2018-07-02,1291 Renee Dam West Coreyhaven NY 81588,Port Kevinstad,Montana,West,Savannah
The Purely Shop,SMB,1992-11-21,0836 Aguilar Expressway Robertchester KY 12289,Pruittmouth,New York,East,Amanda
The Eclectic Nook,Outlet Stores,1974-10-22,50195 Strickland Rest Apt. 205 Obrienview CA 62183,North Mark,Wisconsin,West,Chelsea
The Modern Quest,MBO,1979-11-30,898 Brown Springs Apt. 364 Mallorybury NY 47147,Joneschester,Vermont,North,Eric
The Chic Emporium,Exclusive,1997-06-20,Unit 2859 Box 1595 DPO AP 51939,East Mark,Iowa,North,Yvonne
The Artisan Haven,MBO,1995-03-21,1390 Jeremy Terrace Raymondfort WI 07046,Jasonburgh,Montana,North,Michael
The Urban Nook,Outlet Stores,2004-07-17,667 Morgan Throughway Apt. 628 Alishahaven MN 15978,North Gregory,Michigan,South,Alexis
The Stylish Enclave,Exclusive,2017-08-21,90260 Cardenas Mission Apt. 519 North Josebury PR 77835,Williamston,Rhode Island,South,Dawn
The Polished Elegance,Exclusive,1972-09-22,432 Susan Expressway Lynnchester NE 31209,West Jeffrey,Alaska,East,Christopher
The Eclectic Perfection,SMB,1975-09-15,348 Larry Stream North Trevor CA 93532,East Patriciaburgh,Missouri,East,Nancy
The Happy Reflections,MBO,2016-03-16,498 Harris Avenue Suite 305 New Leonard MS 07492,Lake Michael,Idaho,East,Karen
The Urban Finds,Outlet Stores,2008-12-08,0906 Richard Mews Apt. 862 Collinsbury FL 05213,Port Mary,Wyoming,East,Gerald
The Blissful Nook,SMB,1994-10-13,60843 Charles Meadows Moorefort CT 46968,Andrewbury,Utah,South,Michael
The Radiant Finds,MBO,2012-10-24,4778 Paul Parkways Apt. 039 Reyesland FM 07869,New Audrey,North Dakota,West,Mariah
The Harmony Finds,Outlet Stores,2003-10-05,2454 Jennifer Route Apt. 267 Port Patrick PR 45956,Port Jacqueline,Arkansas,South,Jasmine
The Golden Deals,SMB,1994-05-19,294 Monroe Burg Sarahaven RI 07038,South Zachary,Mississippi,South,Beth
